NORAD_CAT_ID,OBJECT_NAME,OBJECT_TYPE,EPOCH,MEAN_MOTION,ECCENTRICITY,INCLINATION,RA_OF_ASC_NODE,ARG_OF_PERICENTER,MEAN_ANOMALY,BSTAR,MEAN_MOTION_DOT,MEAN_MOTION_DDOT,TLE_LINE0,TLE_LINE1,TLE_LINE2,SEMIMAJOR_AXIS,PERIOD,APOGEE,PERIGEE,DECAYED
51816.0,STARLINK-3603,PAYLOAD,2022-04-03 22:00:00,15.73192784,0.0001028,53.2158,319.1044,93.498,168.0072,2.9908e-05,3.578e-05,0.0,0 STARLINK-3603,1 51816U 22017BA  22093.91667824  .00003578  00000-0  29908-4 0  9997,2 51816  53.2158 319.1044 0001028  93.4980 168.0072 15.73192784  3692,6727.916,91.534,350.472,349.089,0.0
51816.0,STARLINK-3603,PAYLOAD,2022-04-04 12:00:00,15.73182912,0.0001019,53.2153,316.2155,110.9513,216.2025,0.0001791,0.00024571,0.0,0 STARLINK-3603,1 51816U 22017BA  22094.50001157  .00024571  00000-0  17910-3 0  9999,2 51816  53.2153 316.2155 0001019 110.9513 216.2025 15.73182912  7246,6727.944,91.534,350.494,349.12300000000016,0.0
51816.0,STARLINK-3603,PAYLOAD,2022-04-04 14:00:01,15.73173959,0.0001038,53.2155,315.803,112.3285,327.0569,0.00039563,0.00055207,0.0,0 STARLINK-3603,1 51816U 22017BA  22094.58334491  .00055207  00000-0  39563-3 0  9995,2 51816  53.2155 315.8030 0001038 112.3285 327.0569 15.73173959  3700,6727.969,91.535,350.533,349.136,0.0
51816.0,STARLINK-3603,PAYLOAD,2022-04-04 22:00:00,15.73225082,9.71e-05,53.2157,314.1555,93.6806,74.6507,-8.741e-05,-0.00012881,0.0,0 STARLINK-3603,1 51816U 22017BA  22094.91667824 -.00012881  00000-0 -87410-4 0  9999,2 51816  53.2157 314.1555 0000971  93.6806  74.6507 15.73225082  3703,6727.824000000001,91.532,350.342,349.035,0.0
51816.0,STARLINK-3603,PAYLOAD,2022-04-05 12:00:00,15.73194208,0.00011,53.2156,311.2666,104.0153,129.9687,-0.00027874,-0.00039545,0.0,0 STARLINK-3603,1 51816U 22017BA  22095.50001157 -.00039545  00000-0 -27874-3 0  9999,2 51816  53.2156 311.2666 0001100 104.0153 129.9687 15.73194208  7397,6727.9119999999975,91.534,350.517,349.037,0.0
51816.0,STARLINK-3603,PAYLOAD,2022-04-05 14:00:01,15.73204943,0.0001151,53.2158,310.8543,103.6476,242.6266,-0.00057384,-0.00080404,0.0,0 STARLINK-3603,1 51816U 22017BA  22095.58335648 -.00080404  00000-0 -57384-3 0  9991,2 51816  53.2158 310.8543 0001151 103.6476 242.6266 15.73204943  3702,6727.880999999999,91.533,350.52,348.972,0.0
51816.0,STARLINK-3603,PAYLOAD,2022-04-05 22:00:00,15.73109026,0.0001173,53.2154,309.207,91.2464,343.87800000000016,0.00016152,0.0002202,0.0,0 STARLINK-3603,1 51816U 22017BA  22095.91667824  .00022020  00000-0  16152-3 0  9998,2 51816  53.2154 309.2070 0001173  91.2464 343.8780 15.73109026  3709,6728.155,91.538,350.809,349.23,0.0
51816.0,STARLINK-3603,PAYLOAD,2022-04-06 12:00:00,15.73156338,0.0001115,53.215,306.3182,105.7291,34.8932,0.00082297,0.00116271,0.0,0 STARLINK-3603,1 51816U 22017BA  22096.50001157  .00116271  00000-0  82297-3 0  9990,2 51816  53.2150 306.3182 0001115 105.7291  34.8932 15.73156338  7553,6728.02,91.536,350.635,349.134,0.0
51816.0,STARLINK-3603,PAYLOAD,2022-04-06 14:00:01,15.73186821,0.0001118,53.2152,305.906,105.8808,146.9596,0.00066017,0.00093009,0.0,0 STARLINK-3603,1 51816U 22017BA  22096.58334491  .00093009  00000-0  66017-3 0  9993,2 51816  53.2152 305.9060 0001118 105.8808 146.9596 15.73186821  3707,6727.933000000001,91.534,350.55,349.046,0.0
51816.0,STARLINK-3603,PAYLOAD,2022-04-06 20:00:01,15.73250531,9.990000000000004e-05,53.2153,304.6707,95.1901,134.3346,-0.00039294,-0.00055521,0.0,0 STARLINK-3603,1 51816U 22017BA  22096.83334491 -.00055521  00000-0 -39294-3 0  9997,2 51816  53.2153 304.6707 0000999  95.1901 134.3346 15.73250531  7600,6727.751,91.53,350.288,348.944,0.0
51816.0,STARLINK-3603,PAYLOAD,2022-04-06 22:00:00,15.73243494,9.63e-05,53.2155,304.2586,91.8293,249.9387,-0.00035971,-0.0005089,0.0,0 STARLINK-3603,1 51816U 22017BA  22096.91667824 -.00050890  00000-0 -35971-3 0  9997,2 51816  53.2155 304.2586 0000963  91.8293 249.9387 15.73243494  3706,6727.771,91.531,350.284,348.98800000000006,0.0
51816.0,STARLINK-3603,PAYLOAD,2022-04-07 04:00:00,15.73230824,7.96e-05,53.2153,303.0208,87.3436,231.1559,-2.497e-05,-4.126e-05,0.0,0 STARLINK-3603,1 51816U 22017BA  22097.16667824 -.00004126  00000-0 -24970-4 0  9994,2 51816  53.2153 303.0208 0000796  87.3436 231.1559 15.73230824  7661,6727.807,91.531,350.208,349.13699999999994,0.0
51816.0,STARLINK-3603,PAYLOAD,2022-04-07 14:00:01,15.73200504,0.0001147,53.2156,300.9575,98.4299,61.2704,-0.00021473,-0.00030646,0.0,0 STARLINK-3603,1 51816U 22017BA  22097.58334491 -.00030646  00000-0 -21473-3 0  9991,2 51816  53.2156 300.9575 0001147  98.4299  61.2704 15.73200504  3705,6727.894,91.533,350.53,348.987,0.0
51816.0,STARLINK-3603,PAYLOAD,2022-04-07 20:00:01,15.73181983,0.0001225,53.2152,299.722,86.3,50.1097,0.00038395,0.00053567,0.0,0 STARLINK-3603,1 51816U 22017BA  22097.83334491  .00053567  00000-0  38395-3 0  9995,2 51816  53.2152 299.7220 0001225  86.3000  50.1097 15.73181983  7767,6727.946999999999,91.534,350.636,348.987,0.0
51816.0,STARLINK-3603,PAYLOAD,2022-04-07 22:00:00,15.73178283,0.0001256,53.2153,299.3101,83.5275,165.1134,0.00061773,0.00086894,0.0,0 STARLINK-3603,1 51816U 22017BA  22097.91667824  .00086894  00000-0  61773-3 0  9998,2 51816  53.2153 299.3101 0001256  83.5275 165.1134 15.73178283  3684,6727.956999999999,91.534,350.667,348.977,0.0
51816.0,STARLINK-3603,PAYLOAD,2022-04-08 14:00:03,15.73278356,0.0001214,53.2151,296.0087,97.6857,329.0179,-0.0002194,-0.000314,0.0,0 STARLINK-3603,1 51816U 22017BA  22098.58336806 -.00031400  00000-0 -21940-3 0  9992,2 51816  53.2151 296.0087 0001214  97.6857 329.0179 15.73278356  3700,6727.672,91.529,350.35400000000016,348.72,0.0
51816.0,STARLINK-3603,PAYLOAD,2022-04-08 20:00:01,15.73248153,0.0001013,53.2151,294.7734,86.4419,316.8791,-0.00068507,-0.0009587,0.0,0 STARLINK-3603,1 51816U 22017BA  22098.83334491 -.00095870  00000-0 -68507-3 0  9999,2 51816  53.2151 294.7734 0001013  86.4419 316.8791 15.73248153  7925,6727.7580000000025,91.53,350.30400000000014,348.941,0.0
51816.0,STARLINK-3603,PAYLOAD,2022-04-08 22:00:00,15.73213395,9.77e-05,53.2153,294.3613,81.2492,74.321,-0.00035842,-0.00050646,0.0,0 STARLINK-3603,1 51816U 22017BA  22098.91667824 -.00050646  00000-0 -35842-3 0  9995,2 51816  53.2153 294.3613 0000977  81.2492  74.3210 15.73213395  3671,6727.857,91.532,350.379,349.065,0.0
51816.0,STARLINK-3603,PAYLOAD,2022-04-09 04:00:00,15.73216724,9.67e-05,53.215,293.1232,81.4498,50.8169,-0.00074071,-0.00103375,0.0,0 STARLINK-3603,1 51816U 22017BA  22099.16667824 -.00103375  00000-0 -74071-3 0  9998,2 51816  53.2150 293.1232 0000967  81.4498  50.8169 15.73216724  7977,6727.847,91.532,350.36300000000006,349.06199999999984,0.0
51816.0,STARLINK-3603,PAYLOAD,2022-04-09 12:00:00,15.73289831,8.22e-05,53.2159,291.4632,104.6919,116.508,-0.0016526,-0.00227254,0.0,0 STARLINK-3603,1 51816U 22017BA  22099.50001157 -.00227254  00000-0 -16526-2 0  9990,2 51816  53.2159 291.4632 0000822 104.6919 116.5080 15.73289831  8025,6727.639,91.528,350.057,348.951,0.0
51816.0,STARLINK-3603,PAYLOAD,2022-04-09 14:00:01,15.73458614,6.82e-05,53.2163,291.0493,86.6044,246.7962,-0.0053553,-0.00700288,0.0,0 STARLINK-3603,1 51816U 22017BA  22099.58334491 -.00700288  00000-0 -53553-2 0  9992,2 51816  53.2163 291.0493 0000682  86.6044 246.7962 15.73458614  3716,6727.158,91.518,349.482,348.564,0.0
51816.0,STARLINK-3603,PAYLOAD,2022-04-09 20:00:01,15.73200484,0.0001179,53.2148,289.8248,76.9384,233.2371,0.00021375,0.00029484,0.0,0 STARLINK-3603,1 51816U 22017BA  22099.83334491  .00029484  00000-0  21375-3 0  9998,2 51816  53.2148 289.8248 0001179  76.9384 233.2371 15.73200484  8083,6727.894,91.533,350.552,348.966,0.0
51816.0,STARLINK-3603,PAYLOAD,2022-04-09 22:00:00,15.73186319,0.0001145,53.2148,289.4128,74.9828,347.4325,0.00049333,0.00069146,0.0,0 STARLINK-3603,1 51816U 22017BA  22099.91667824  .00069146  00000-0  49333-3 0  9999,2 51816  53.2148 289.4128 0001145  74.9828 347.4325 15.73186319  3701,6727.934,91.534,350.57,349.029,0.0
51816.0,STARLINK-3603,PAYLOAD,2022-04-10 12:00:00,15.73217392,9.97e-05,53.2145,286.5238,90.5429,37.502,0.00015063,0.00020587,0.0,0 STARLINK-3603,1 51816U 22017BA  22100.50001157  .00020587  00000-0  15063-3 0  9997,2 51816  53.2145 286.5238 0000997  90.5429  37.5020 15.73217392  8185,6727.846,91.532,350.381,349.04,0.0
51816.0,STARLINK-3603,PAYLOAD,2022-04-10 14:00:01,15.73258313,9.95e-05,53.2146,286.1119,88.396,151.8761,-0.00047488,-0.00066902,0.0,0 STARLINK-3603,1 51816U 22017BA  22100.58334491 -.00066902  00000-0 -47488-3 0  9994,2 51816  53.2146 286.1119 0000995  88.3960 151.8761 15.73258313  3706,6727.729,91.53,350.26300000000015,348.925,0.0
51816.0,STARLINK-3603,PAYLOAD,2022-04-10 22:00:00,15.73198704,0.0001264,53.2146,284.4642,72.736,256.559,-0.00012486,-0.00018104,0.0,0 STARLINK-3603,1 51816U 22017BA  22100.91667824 -.00018104  00000-0 -12486-3 0  9991,2 51816  53.2146 284.4642 0001264  72.7360 256.5590 15.73198704  3710,6727.899,91.533,350.61400000000015,348.913,0.0
51816.0,STARLINK-3603,PAYLOAD,2022-04-11 04:00:01,15.73188369,0.0001224,53.2145,283.2256,76.6522,229.3792,-0.00041397,-0.00058287,0.0,0 STARLINK-3603,1 51816U 22017BA  22101.16668981 -.00058287  00000-0 -41397-3 0  9993,2 51816  53.2145 283.2256 0001224  76.6522 229.3792 15.73188369  8292,6727.928000000001,91.534,350.617,348.97,0.0
51816.0,STARLINK-3603,PAYLOAD,2022-04-11 14:00:01,15.73195228,0.0001132,53.2147,281.1634,79.7037,67.3326,-0.00030775,-0.00043577,0.0,0 STARLINK-3603,1 51816U 22017BA  22101.58334491 -.00043577  00000-0 -30775-3 0  9999,2 51816  53.2147 281.1634 0001132  79.7037  67.3326 15.73195228  3698,6727.909000000002,91.533,350.535,349.01199999999994,0.0
51816.0,STARLINK-3603,PAYLOAD,2022-04-11 20:00:01,15.73172046,0.0001139,53.2142,279.9279,64.8601,58.8619,-0.00048299,-0.00067778,0.0,0 STARLINK-3603,1 51816U 22017BA  22101.83334491 -.00067778  00000-0 -48299-3 0  9996,2 51816  53.2142 279.9279 0001139  64.8601  58.8619 15.73172046  8397,6727.975,91.535,350.606,349.074,0.0
